{"type": "FeatureCollection", "features": [ {"type": "Feature", "properties": {"norad_id": 43010, "name": "FENGYUN 3D", "group": "weather", "lat": 55.25178705870652, "lon": -51.04758699456105, "alt_km": 821.2634318317168, "timestamp": "2025-12-21T16:47:54.371875+00:00", "meta": {"OBJECT_NAME": "FENGYUN 3D", "OBJECT_ID": "2017-072A", "EPOCH": "2025-12-21T13:09:04.500864", "MEAN_MOTION": 14.19686324, "ECCENTRICITY": 0.0001369, "INCLINATION": 98.9899, "RA_OF_ASC_NODE": 321.9899, "ARG_OF_PERICENTER": 155.66, "MEAN_ANOMALY": 204.464, "EPHEMERIS_TYPE": 0, "CLASSIFICATION_TYPE": "U", "NORAD_CAT_ID": 43010, "ELEMENT_SET_NO": 999, "REV_AT_EPOCH": 41978, "BSTAR": 9.4973e-05, "MEAN_MOTION_DOT": 1.55e-06, "MEAN_MOTION_DDOT": 0}, "tle": {"line1": "1 43010U 17072A   25355.54796876  .00000155  00000+0  94973-4 0  9993", "line2": "2 43010  98.9899 321.9899 0001369 155.6600 204.4640 14.19686324419788"}}, "geometry": {"type": "Point", "coordinates": [-51.04758699456105, 55.25178705870652]}}, {"type": "Feature", "properties": {"norad_id": 43013, "name": "NOAA 20 (JPSS-1)", "group": "weather", "lat": -23.263980513133003, "lon": 108.09756521308621, "alt_km": 833.3136782005122, "timestamp": "2025-12-21T16:47:54.371887+00:00", "meta": {"OBJECT_NAME": "NOAA 20 (JPSS-1)", "OBJECT_ID": "2017-073A", "EPOCH": "2025-12-21T10:46:05.653920", "MEAN_MOTION": 14.19527867, "ECCENTRICITY": 0.0002126, "INCLINATION": 98.7611, "RA_OF_ASC_NODE": 291.6505, "ARG_OF_PERICENTER": 74.7648, "MEAN_ANOMALY": 285.3763, "EPHEMERIS_TYPE": 0, "CLASSIFICATION_TYPE": "U", "NORAD_CAT_ID": 43013, "ELEMENT_SET_NO": 999, "REV_AT_EPOCH": 41925, "BSTAR": 5.2399e-05, "MEAN_MOTION_DOT": 6.6e-07, "MEAN_MOTION_DDOT": 0}, "tle": {"line1": "1 43013U 17073A   25355.44867655  .00000066  00000+0  52399-4 0  9997", "line2": "2 43013  98.7611 291.6505 0002126  74.7648 285.3763 14.19527867419255"}}, "geometry": {"type": "Point", "coordinates": [108.09756521308621, -23.263980513133003]}}, {"type": "Feature", "properties": {"norad_id": 43226, "name": "GOES 17", "group": "weather", "lat": 0.10814963936619496, "lon": -107.0414488327886, "alt_km": 35774.80321282853, "timestamp": "2025-12-21T16:47:54.371900+00:00", "meta": {"OBJECT_NAME": "GOES 17", "OBJECT_ID": "2018-022A", "EPOCH": "2025-12-21T11:03:34.161984", "MEAN_MOTION": 1.0027043, "ECCENTRICITY": 0.0003109, "INCLINATION": 0.4788, "RA_OF_ASC_NODE": 89.1269, "ARG_OF_PERICENTER": 191.6701, "MEAN_ANOMALY": 245.8663, "EPHEMERIS_TYPE": 0, "CLASSIFICATION_TYPE": "U", "NORAD_CAT_ID": 43226, "ELEMENT_SET_NO": 999, "REV_AT_EPOCH": 2864, "BSTAR": 0, "MEAN_MOTION_DOT": -1.6e-06, "MEAN_MOTION_DDOT": 0}, "tle": {"line1": "1 43226U 18022A   25355.46081206 -.00000160  00000+0  00000+0 0  9993", "line2": "2 43226   0.4788  89.1269 0003109 191.6701 245.8663  1.00270430 28640"}}, "geometry": {"type": "Point", "coordinates": [-107.0414488327886, 0.10814963936619496]}}, {"type": "Feature", "properties": {"norad_id": 43491, "name": "FENGYUN 2H", "group": "weather", "lat": -0.8327202357638119, "lon": 61.85638462729161, "alt_km": 35796.33818599389, "timestamp": "2025-12-21T16:47:54.371924+00:00", "meta": {"OBJECT_NAME": "FENGYUN 2H", "OBJECT_ID": "2018-050A", "EPOCH": "2025-12-21T11:51:47.920896", "MEAN_MOTION": 1.00271144, "ECCENTRICITY": 0.0002365, "INCLINATION": 2.5723, "RA_OF_ASC_NODE": 81.2378, "ARG_OF_PERICENTER": 166.1034, "MEAN_ANOMALY": 100.2711, "EPHEMERIS_TYPE": 0, "CLASSIFICATION_TYPE": "U", "NORAD_CAT_ID": 43491, "ELEMENT_SET_NO": 999, "REV_AT_EPOCH": 2765, "BSTAR": 0, "MEAN_MOTION_DOT": -1.09e-06, "MEAN_MOTION_DDOT": 0}, "tle": {"line1": "1 43491U 18050A   25355.49430464 -.00000109  00000+0  00000+0 0  9998", "line2": "2 43491   2.5723  81.2378 0002365 166.1034 100.2711  1.00271144 27650"}}, "geometry": {"type": "Point", "coordinates": [61.85638462729161, -0.8327202357638119]}}, {"type": "Feature", "properties": {"norad_id": 43689, "name": "METOP-C", "group": "weather", "lat": 46.71431176714631, "lon": 43.98488212467545, "alt_km": 815.6360806619668, "timestamp": "2025-12-21T16:47:54.371935+00:00", "meta": {"OBJECT_NAME": "METOP-C", "OBJECT_ID": "2018-087A", "EPOCH": "2025-12-21T09:49:07.763232", "MEAN_MOTION": 14.21487507, "ECCENTRICITY": 8.29e-05, "INCLINATION": 98.6917, "RA_OF_ASC_NODE": 53.0454, "ARG_OF_PERICENTER": 23.8436, "MEAN_ANOMALY": 336.2779, "EPHEMERIS_TYPE": 0, "CLASSIFICATION_TYPE": "U", "NORAD_CAT_ID": 43689, "ELEMENT_SET_NO": 999, "REV_AT_EPOCH": 36957, "BSTAR": 7.3499e-05, "MEAN_MOTION_DOT": 1.17e-06, "MEAN_MOTION_DDOT": 0}, "tle": {"line1": "1 43689U 18087A   25355.40911763  .00000117  00000+0  73499-4 0  9999", "line2": "2 43689  98.6917  53.0454 0000829  23.8436 336.2779 14.21487507369574"}}, "geometry": {"type": "Point", "coordinates": [43.98488212467545, 46.71431176714631]}}, {"type": "Feature", "properties": {"norad_id": 43823, "name": "GEO-KOMPSAT-2A", "group": "weather", "lat": 0.016289588169391155, "lon": 110.75312132491776, "alt_km": 35784.71725532951, "timestamp": "2025-12-21T16:47:54.371948+00:00", "meta": {"OBJECT_NAME": "GEO-KOMPSAT-2A", "OBJECT_ID": "2018-100A", "EPOCH": "2025-12-21T12:40:07.140288", "MEAN_MOTION": 1.00270687, "ECCENTRICITY": 4.06e-05, "INCLINATION": 0.0517, "RA_OF_ASC_NODE": 133.066, "ARG_OF_PERICENTER": 328.636, "MEAN_ANOMALY": 306.9428, "EPHEMERIS_TYPE": 0, "CLASSIFICATION_TYPE": "U", "NORAD_CAT_ID": 43823, "ELEMENT_SET_NO": 999, "REV_AT_EPOCH": 2584, "BSTAR": 0, "MEAN_MOTION_DOT": -3.21e-06, "MEAN_MOTION_DDOT": 0}, "tle": {"line1": "1 43823U 18100A   25355.52786042 -.00000321  00000+0  00000+0 0  9999", "line2": "2 43823   0.0517 133.0660 0000406 328.6360 306.9428  1.00270687 25844"}}, "geometry": {"type": "Point", "coordinates": [110.75312132491776, 0.016289588169391155]}}, {"type": "Feature", "properties": {"norad_id": 44387, "name": "METEOR-M2 2", "group": "weather", "lat": -31.856328828512268, "lon": 149.9523296943594, "alt_km": 816.7332812060431, "timestamp": "2025-12-21T16:47:54.371958+00:00", "meta": {"OBJECT_NAME": "METEOR-M2 2", "OBJECT_ID": "2019-038A", "EPOCH": "2025-12-21T12:26:00.315744", "MEAN_MOTION": 14.24294507, "ECCENTRICITY": 0.0001642, "INCLINATION": 98.8973, "RA_OF_ASC_NODE": 335.3542, "ARG_OF_PERICENTER": 129.7186, "MEAN_ANOMALY": 230.4137, "EPHEMERIS_TYPE": 0, "CLASSIFICATION_TYPE": "U", "NORAD_CAT_ID": 44387, "ELEMENT_SET_NO": 999, "REV_AT_EPOCH": 33600, "BSTAR": 2.7527e-05, "MEAN_MOTION_DOT": 1.8e-07, "MEAN_MOTION_DDOT": 0}, "tle": {"line1": "1 44387U 19038A   25355.51805921  .00000018  00000+0  27527-4 0  9993", "line2": "2 44387  98.8973 335.3542 0001642 129.7186 230.4137 14.24294507336004"}}, "geometry": {"type": "Point", "coordinates": [149.9523296943594, -31.856328828512268]}}, {"type": "Feature", "properties": {"norad_id": 47719, "name": "ARKTIKA-M 1", "group": "weather", "lat": 59.884723288877645, "lon": 143.4270981999178, "alt_km": 36325.201650444724, "timestamp": "2025-12-21T16:47:54.371974+00:00", "meta": {"OBJECT_NAME": "ARKTIKA-M 1", "OBJECT_ID": "2021-016A", "EPOCH": "2025-12-21T01:10:59.170944", "MEAN_MOTION": 2.00630317, "ECCENTRICITY": 0.7208476, "INCLINATION": 63.1763, "RA_OF_ASC_NODE": 82.8606, "ARG_OF_PERICENTER": 269.1559, "MEAN_ANOMALY": 15.5506, "EPHEMERIS_TYPE": 0, "CLASSIFICATION_TYPE": "U", "NORAD_CAT_ID": 47719, "ELEMENT_SET_NO": 999, "REV_AT_EPOCH": 3521, "BSTAR": 0, "MEAN_MOTION_DOT": -1e-06, "MEAN_MOTION_DDOT": 0}, "tle": {"line1": "1 47719U 21016A   25355.04929596 -.00000100  00000+0  00000+0 0  9992", "line2": "2 47719  63.1763  82.8606 7208476 269.1559  15.5506  2.00630317 35212"}}, "geometry": {"type": "Point", "coordinates": [143.4270981999178, 59.884723288877645]}}, {"type": "Feature", "properties": {"norad_id": 49008, "name": "FENGYUN 3E", "group": "weather", "lat": 28.71266141435587, "lon": -8.722925077940713, "alt_km": 824.9304421093029, "timestamp": "2025-12-21T16:47:54.371986+00:00", "meta": {"OBJECT_NAME": "FENGYUN 3E", "OBJECT_ID": "2021-062A", "EPOCH": "2025-12-21T13:16:45.893280", "MEAN_MOTION": 14.19882308, "ECCENTRICITY": 7.87e-05, "INCLINATION": 98.7469, "RA_OF_ASC_NODE": 355.9699, "ARG_OF_PERICENTER": 204.8201, "MEAN_ANOMALY": 155.2937, "EPHEMERIS_TYPE": 0, "CLASSIFICATION_TYPE": "U", "NORAD_CAT_ID": 49008, "ELEMENT_SET_NO": 999, "REV_AT_EPOCH": 23137, "BSTAR": 0.00017135, "MEAN_MOTION_DOT": 3.2e-06, "MEAN_MOTION_DDOT": 0}, "tle": {"line1": "1 49008U 21062A   25355.55330895  .00000320  00000+0  17135-3 0  9994", "line2": "2 49008  98.7469 355.9699 0000787 204.8201 155.2937 14.19882308231373"}}, "geometry": {"type": "Point", "coordinates": [-8.722925077940713, 28.71266141435587]}}, {"type": "Feature", "properties": {"norad_id": 51850, "name": "GOES 18", "group": "weather", "lat": 0.0013248783385386446, "lon": -154.51132296769637, "alt_km": 35786.53055868537, "timestamp": "2025-12-21T16:47:54.371998+00:00", "meta": {"OBJECT_NAME": "GOES 18", "OBJECT_ID": "2022-021A", "EPOCH": "2025-12-21T09:51:25.078752", "MEAN_MOTION": 1.0027154, "ECCENTRICITY": 2.86e-05, "INCLINATION": 0.0022, "RA_OF_ASC_NODE": 239.7903, "ARG_OF_PERICENTER": 75.7136, "MEAN_ANOMALY": 145.5891, "EPHEMERIS_TYPE": 0, "CLASSIFICATION_TYPE": "U", "NORAD_CAT_ID": 51850, "ELEMENT_SET_NO": 999, "REV_AT_EPOCH": 481, "BSTAR": 0, "MEAN_MOTION_DOT": 1.19e-06, "MEAN_MOTION_DDOT": 0}, "tle": {"line1": "1 51850U 22021A   25355.41070693  .00000119  00000+0  00000+0 0  9995", "line2": "2 51850   0.0022 239.7903 0000286  75.7136 145.5891  1.00271540  4819"}}, "geometry": {"type": "Point", "coordinates": [-154.51132296769637, 0.0013248783385386446]}}]}